#dP2024  4 24  0  0  0.00000000      96 __u+U IGS20 EXT  IAC
## 2311 259200.00000000   900.00000000 60424 0.0000000000000
+  118   C06C07C08C09C10C11C12C13C14C16C19C20C21C22C23C24C25
+        C26C27C28C29C30C32C33C34C35C36C37C38C39C40C41C42C43
+        C44C45C46E02E03E04E05E07E08E09E10E11E12E13E14E15E19
+        E21E24E25E26E27E30E31E33E34E36G02G03G04G05G06G07G08
+        G09G10G11G12G13G14G15G16G17G18G19G20G21G22G23G24G25
+        G26G27G28G29G30G31G32J02J03J04R01R02R03R04R05R07R08
+        R09R11R12R13R14R15R16R17R18R19R20R21R22R24R25R26  0
++        11  9  9 11  8 10 10  9 10 10  8  9  7  7  9  8  8
++         8  9  9  7  8  6  7  7  8  9  7 11 11  9  8  9  9
++         8  8  9  7  8  8  7  7  7  7  7  6  7  7  7  8  6
++         7  7  7  7  6  7  7  7  8  7  7  8  7  7  6  8  6
++         6  7  7  6  7  7  7  6  6  8  6  6  7  7  7  6  7
++         8  7  6  6  6  6  7 10  9  0  8  7  7  7  9  7  7
++         9  9  9  9  8  9  7  7  9  6  8  8  8  8  7  8  0
%c M  cc GPS ccc cccc cccc cccc cccc ccccc ccccc ccccc ccccc
%c cc cc ccc ccc cccc cccc cccc cccc ccccc ccccc ccccc ccccc
%f  0.0000000  0.000000000  0.00000000000  0.000000000000000
%f  0.0000000  0.000000000  0.00000000000  0.000000000000000
%i    0    0    0    0      0      0      0      0         0
%i    0    0    0    0      0      0      0      0         0
/* IAC                                ULTRA-RAPID PREDICTION
/* S/V CLOCKS ARE ALIGNED TO GNSS TIME                      
/* G:C1WC2W R:C1PC2P E:C1XC5X C:C2IC6I J:C1CC2S             
/* PCV:IGS20_2290 OL/AL:FES2004  NONE     YN ORB:CoN CLK:CoN
*  2024 04 24  2 30  0.00000000
PC06  -8975.698385  40953.397557  -2374.860182    369.774466
PC07  -5566.318883  28193.452106  30975.862161   -792.339659
PC08 -20089.688380  24716.525582 -27746.687499    -52.163718
PC09  -5888.191516  41198.719820   4582.595539   -805.167612
PC10   3747.908681  31223.975271  28629.261150     75.965535
PC11  15277.143202  -2186.081335 -23188.196484    527.728460
PC12  13788.954339  18424.206268 -15751.666553   -236.295718
PC13 -11949.287447  25743.794793 -31117.932654    432.629462
PC14  25737.046827   1044.156435  10835.981021    717.296321
PC16 -12115.016149  39433.459555  -7489.429638   -477.680762
PC19 -20474.923428   5796.827282 -18007.250786   -913.705622
PC20 -26828.956423  -6689.141095  -3592.361762   -392.113099
PC21  17465.739105  16332.888377 -14395.993417   -963.948937
PC22  -1946.728258  15738.890645 -22963.187939    -28.198791
PC23  12184.128812 -22071.702462 -11958.928796   -776.345812
PC24  20255.253000    695.202865  19161.302534    935.230720
PC25  22463.894886 -15809.316004   4852.084438    382.560733
PC26   6353.225610  15759.527516  22123.840632   -281.602717
PC27 -10396.145063 -24576.770985   8161.140919    303.302662
PC28    335.601987 -26880.840768  -7489.947719    232.090354
PC29 -12598.686959  12660.874821  21430.595111    272.281541
PC30 -16764.278817  -9254.507388  20294.419186    -62.194187
PC32 -17451.590182 -16233.681085  14513.740055   -608.282874
PC33  20555.425890  -5887.765961  17953.229127   -969.937075
PC34  16873.516549   7422.335053 -20961.331817    418.887490
PC35    471.359543  26793.619807   7697.883192    379.643344
PC36 -22865.874010  15199.093915  -4995.703589     60.891817
PC37  -5800.101631 -16034.878721 -22077.699457   -963.439046
PC38 -25376.982229  26207.198694 -21207.868375    150.900926
PC39 -13004.484603  37728.552172 -13196.398019     -8.103842
PC40  -8795.080147  22699.594835  34453.068956    -66.923760
PC41   2942.850481 -15513.660732  23064.844969   -931.822134
PC42  26777.180102   7682.744688   2016.860960   -442.782530
PC43  13149.334411 -11718.752076 -21664.521013     69.127686
PC44  11342.906731  24188.305423  -8025.966366    452.921507
PC45 -12347.124822  21991.642486  11965.079480    -81.765358
PC46 -20618.372800     66.865459 -18827.475147   -142.536694
PE02  28694.569429  -6115.315231  -3877.184676    121.932843
PE03  18848.335978  -1535.441687  22778.506024   -109.271141
PE04  -4361.293182  19495.495427 -21830.387167   -380.829647
PE05  21969.539890  16933.190338  10351.982813   4741.402772
PE07 -11972.052591 -25669.942533   8583.276314   -116.279831
PE08   4989.150058 -18852.079958  22269.760535   -259.867966
PE09  11968.935389  25648.877662  -8686.654056   -418.236143
PE10  -6732.371805  27916.227830  -7182.598865   -619.512670
PE11   1023.282003  24651.894389 -16351.350577   2989.463397
PE12 -12722.229641  26633.153117   2042.034598  -1007.926064
PE13   -512.520720 -24977.826999  15886.515106    -21.184761
PE14 -18493.722875  -8301.595653  11988.325406     15.581544
PE15  12999.935133 -26472.995823  -2609.158136    -98.880594
PE19 -19671.118056   -744.453392 -22090.625127   -187.377660
PE21 -25403.837105  -6455.377652 -13758.935553   -590.872091
PE24   6688.643770  15956.320199  23996.479720   -724.532833
PE25  25156.379701   6709.043083  14080.498644      3.695509
PE26 -13952.236959  -8353.903247  24733.793711    434.676000
PE27  -7112.794373 -15811.938328 -23994.618047   -332.129440
PE30  15335.810113 -15703.545558 -19868.153942   -230.165528
PE31 -15161.315072  15739.750286  19966.829883    -21.648206
PE33 -18693.454161  11897.646231  19623.220582     10.821519
PE34  18674.476635 -12452.152557 -19304.583412   -107.397003
PE36  13505.529729   8902.570449 -24789.940767   -217.623970
PG02 -14439.081309  18577.869614  12521.316313   -448.129856
PG03 -18879.713366  12352.688462 -14064.986437    327.356890
PG04  -9302.149547  12459.147982 -21501.282802    345.774486
PG05  26050.260063  -5421.277312     87.407279   -170.252216
PG06   8498.404886  14664.493633 -20354.611964    307.187472
PG07  -3935.638573  25052.385298   7527.639575   -114.053726
PG08 -16451.409204   3294.420936  20572.788942    140.081963
PG09   3046.933955  21009.071826 -16007.866453    171.420021
PG10 -13454.369824 -11460.833385  20135.722293    -12.749748
PG11  15483.333513   1678.801171 -21486.745278   -644.695173
PG12  20625.574800 -10844.610373 -12976.853039   -499.323145
PG13  18304.960407   6766.135574  17917.441917    645.188307
PG14   9227.241318  13874.119703  20752.713439    383.924621
PG15  16021.941560  -5400.808968  20032.088769    151.696735
PG16 -26596.433639   -699.198200  -3610.980291   -309.108940
PG17  12001.626745  23102.241595   5234.009686    710.423020
PG18   4309.816598 -24867.140613   7966.099832   -599.682751
PG19  16985.719187  20150.115921  -4858.356347    472.492711
PG20  24045.181781     29.251101 -11053.994988    379.061924
PG21 -15783.433911  13391.297266  16484.750228    125.577203
PG22  16527.843588  11308.347236  17721.468048     -3.935716
PG23     86.871548 -15007.061372  21924.054095    208.459731
PG24  14766.783303 -17333.908965  12909.455829   -462.765360
PG25  11084.593495 -15499.850481 -18732.728061    494.403954
PG26 -21371.071952  -6270.794053 -14886.648521    162.530190
PG27 -20362.642486  -8786.407836  14637.403393    -20.418990
PG28  -7933.133523 -17035.264531 -18784.139903   -215.636344
PG29    821.689504 -19933.121872 -17531.546492   -600.880848
PG30   4405.146797  20854.983385  15819.505677   -400.721568
PG31 -14005.144909  -6543.803074 -21801.681151   -227.976585
PG32 -15422.480986 -21624.312929   2626.247888   -618.361288
PJ02 -29712.514639  24204.330058  22718.517845     -4.439746
PJ03 -29580.698930  26437.228586  19340.630879      0.014922
PJ04 -27191.681582  19727.539892 -20367.496313     50.410853
PR01 -13311.936323   4436.187360 -21290.779525     83.357630
PR02   3202.315940  13371.151459 -21419.942607    -22.791681
PR03  18200.382272  15221.472229  -9241.063093     98.859939
PR04  22638.928531   8938.306324   7651.610170    233.369244
PR05  15068.779378  -2223.781534  20471.905539    130.446734
PR07 -18697.281882 -15162.530701   8552.120318     80.888022
PR08 -22711.208629  -8666.469183  -7713.576510    -75.196271
PR09   9414.539298 -16183.782379 -17348.271407    182.716303
PR11 -19242.290063   2550.320485 -16529.518856     26.991719
PR12 -21422.919434  13767.526231   1610.355383     39.346455
PR13 -11883.596717  16188.202453  15715.449167    -46.666569
PR14   7171.338768   8648.019445  22912.477942     26.422507
PR15  20087.262146  -3429.854603  15366.285291     80.293620
PR16  21466.133041 -13753.429299  -1300.455636     25.042515
PR17   6294.921033  20681.829600 -13565.482333     80.706957
PR18  10216.295653   5504.533539 -22698.671825    138.687712
PR19   9808.535430 -10524.928393 -21069.129398   -274.143854
PR20   2997.523045 -24953.642159  -4494.428122   -111.774612
PR21  -6059.869953 -20725.655119  13556.574925    -95.258593
PR22 -10615.011791  -4608.146141  22756.108291    115.086696
PR24  -1764.093975  25151.438747   3919.013456    -53.068652
PR25  -5742.736181 -20733.958574  13692.740353    -31.211856
PR26 -22845.207716  -9140.683886  -6647.792070    -23.328016
EOF
